[{"OBJECT_NAME":"GEISAT PRECURSOR","OBJECT_ID":"2023-084C","EPOCH":"2026-03-09T22:20:25.833120","MEAN_MOTION":15.33054389,"ECCENTRICITY":0.00051675,"INCLINATION":97.6055,"RA_OF_ASC_NODE":206.8263,"ARG_OF_PERICENTER":345.1842,"MEAN_ANOMALY":14.9247,"EPHEMERIS_TYPE":0,"CLASSIFICATION_TYPE":"U","NORAD_CAT_ID":56934,"ELEMENT_SET_NO":999,"REV_AT_EPOCH":15231,"BSTAR":0.00033857167,"MEAN_MOTION_DOT":0.00010736,"MEAN_MOTION_DDOT":0},{"OBJECT_NAME":"STARLINK-34258","OBJECT_ID":"2025-117J","EPOCH":"2026-03-09T07:34:25.709376","MEAN_MOTION":15.3020549,"ECCENTRICITY":3.817e-5,"INCLINATION":53.1622,"RA_OF_ASC_NODE":40.9685,"ARG_OF_PERICENTER":124.9798,"MEAN_ANOMALY":235.1239,"EPHEMERIS_TYPE":0,"CLASSIFICATION_TYPE":"U","NORAD_CAT_ID":64211,"ELEMENT_SET_NO":999,"REV_AT_EPOCH":4447,"BSTAR":0.00096847256,"MEAN_MOTION_DOT":0.00028439,"MEAN_MOTION_DDOT":0}]
